TLE = 
T11N
1 34111U 09009A   23339.82899300 -.00000230  00000-0  00000-0 0  9993
2 34111   0.0175 349.7528 0002515 254.4157  91.1036  1.00270831 36960


SMA =  42164.99940414228 km
ECC 0.0002515
INC 0.0175 deg
RAAN 349.7528 deg
AOP 254.4157 deg
TA =  91.13241425545658 deg
Epoch = 2023-12-05T19:53:44.995200000

